[{"OBJECT_NAME":"STARLINK-5493","OBJECT_ID":"2023-013C","EPOCH":"2026-03-09T00:17:51.258048","MEAN_MOTION":15.02539869,"ECCENTRICITY":0.00018633,"INCLINATION":43.007,"RA_OF_ASC_NODE":304.3484,"ARG_OF_PERICENTER":254.1725,"MEAN_ANOMALY":105.8912,"EPHEMERIS_TYPE":0,"CLASSIFICATION_TYPE":"U","NORAD_CAT_ID":55333,"ELEMENT_SET_NO":999,"REV_AT_EPOCH":17160,"BSTAR":3.4312718e-5,"MEAN_MOTION_DOT":2.6e-6,"MEAN_MOTION_DDOT":0},{"OBJECT_NAME":"NOAA 16 DEB","OBJECT_ID":"2000-055BZ","EPOCH":"2026-03-09T09:57:46.840608","MEAN_MOTION":15.04968987,"ECCENTRICITY":0.00133628,"INCLINATION":98.8453,"RA_OF_ASC_NODE":286.076,"ARG_OF_PERICENTER":194.204,"MEAN_ANOMALY":165.8809,"EPHEMERIS_TYPE":0,"CLASSIFICATION_TYPE":"U","NORAD_CAT_ID":41142,"ELEMENT_SET_NO":999,"REV_AT_EPOCH":53866,"BSTAR":0.0051237154,"MEAN_MOTION_DOT":0.00073426,"MEAN_MOTION_DDOT":0}]
